SatCatId,ObjectName,LaunchYear,OrbitalPeriod,LaunchMass,StatusCode,Inclination,Status,UcsData,OrbitClassEstimated,LaunchSiteCountry,Owner,UseType,Purpose,LaunchVehicleClass,TLE1,TLE2,MeanMotion,Eccentricity,OrbitClass
20440,DOVE (DO-17),1990,100.44,-1.0,-,98.88,Inactive,0,LEO,French Guiana,Brazil,Unknown,Unknown,Soyuz,1 20440U 90005E   24001.59949060  .00000268  00000+0  11327-3 0  9995,2 20440  98.8813 356.2457 0010120 322.9858 151.5347 14.33708064773685,14.33708064,0.001012,LEO
20441,WEBERSAT (WO-18),1990,100.47,-1.0,-,98.88,Inactive,0,LEO,French Guiana,USA,Unknown,Unknown,Ariane,1 20441U 90005F   24001.54520674  .00000239  00000+0  10376-3 0  9998,2 20441  98.8842 354.1460 0010939 337.1028 145.4113 14.33292234773437,14.33292234,0.0010939,LEO
28629,EXPRESS-AM2,2005,1453.89,-1.0,-,7.61,Inactive,0,GSO,Kazakhstan,Russia/USSR,Unknown,Unknown,Unknown,1 28629U 05010A   24001.63331785 -.00000266  00000+0  00000+0 0  9999,2 28629   7.6110  63.6537 0018938  85.4867 333.6792  0.99044676 31676,0.99044676,0.0018938,GSO
36827,PRISMA (TANGO),2010,99.77,-1.0,UNK,98.51,Inactive,0,LEO,Russia,Sweden,Unknown,Unknown,Vega,1 36827U 10028F   24001.50599256  .00000496  00000+0  15860-3 0  9996,2 36827  98.5108 204.4998 0043187  60.9024 299.6480 14.43331089573323,14.43331089,0.0043187,LEO
28638,APSTAR-6,2005,1460.87,-1.0,-,5.06,Inactive,0,GSO,PRC,China,Unknown,Unknown,Long March,1 28638U 05012A   24001.52716598 -.00000125  00000+0  00000+0 0  9992,2 28638   5.0556  79.7520 0008703 273.3027  55.8111  0.98571669 93185,0.98571669,0.0008703,GSO
4068,ATS 5,1969,1447.3,-1.0,-,2.27,Inactive,0,GSO,USA,USA,Unknown,Unknown,Atlas,1 04068U 69069A   24001.54049286 -.00000304  00000+0  00000+0 0  9999,2 04068   2.2677 271.7644 0003927 348.9182 175.3186  0.99495842 37394,0.99495842,0.0003927,GSO
20452,NAVSTAR 18 (USA 50),1990,759.5,-1.0,-,54.73,Inactive,0,MEO,USA,USA,Unknown,Unknown,Delta,1 20452U 90008A   23365.65601867  .00000070  00000+0  00000+0 0  9993,2 20452  54.7328 165.0348 0013011 268.2150 154.2649  1.89597939239398,1.89597939,0.0013011,MEO
4070,COSMOS 292,1969,99.02,-1.0,UNK,74.05,Inactive,0,LEO,Russia,Russia/USSR,Unknown,Unknown,Kosmos,1 04070U 69070A   24001.57663046  .00000304  00000+0  78438-4 0  9997,2 04070  74.0463 202.9168 0009559  23.0035 337.1554 14.54251011875570,14.54251011,0.0009559,LEO
28644,SPACEWAY 1,2005,1462.09,-1.0,-,4.38,Inactive,0,GSO,Sea Launch Platform,USA,Unknown,Unknown,Zenit,1 28644U 05015A   23365.50048253  .00000044  00000+0  00000+0 0  9997,2 28644   4.3761  81.1397 0004149 119.0773 153.8432  0.98488918 37328,0.98488918,0.0004149,GSO
28650,HAMSAT (VO-52),2005,96.29,-1.0,-,97.97,Inactive,0,LEO,India,India,Unknown,Unknown,PSLV,1 28650U 05017B   24001.49217366  .00004377  00000+0  39948-3 0  9995,2 28650  97.9717 344.5929 0021420 152.3753 207.8610 14.95442816 11914,14.95442816,0.002142,LEO
20465,COSMOS 2058,1990,95.88,-1.0,UNK,82.49,Inactive,0,LEO,Russia,Russia/USSR,Unknown,Unknown,Tsiklon,1 20465U 90010A   24001.37646622  .00003611  00000+0  27341-3 0  9990,2 20465  82.4882 107.0583 0014744 152.7683 207.4318 15.01946209822023,15.01946209,0.0014744,LEO
20473,STTW-4,1990,1435.43,-1.0,-,14.59,Inactive,0,GSO,PRC,China,Unknown,Unknown,Long March,1 20473U 90011A   24001.59099692 -.00000209  00000+0  00000+0 0  9993,2 20473  14.5930 353.2444 0005413 137.5038 268.4336  1.00318454124044,1.00318454,0.0005413,GSO
20478,MOMO-1B (MOS-1B),1990,103.17,-1.0,-,99.35,Inactive,0,LEO,Japan,Japan,Unknown,Unknown,JAXA H,1 20478U 90013A   24001.60152477  .00000166  00000+0  15539-3 0  9991,2 20478  99.3486  44.8190 0006378 106.7519 253.4342 13.95728430646800,13.9572843,0.0006378,LEO
20479,ORIZURU (DEBUT),1990,112.16,-1.0,UNK,99.07,Inactive,0,LEO,Japan,Japan,Unknown,Unknown,JAXA H,1 20479U 90013B   24001.18140476  .00000045  00000+0  17386-3 0  9999,2 20479  99.0708  86.6202 0538877   5.8630 354.8454 12.83933555588324,12.83933555,0.0538877,LEO
20480,JAS-1B (FO-20),1990,112.2,-1.0,-,99.07,Inactive,0,LEO,Japan,Japan,Unknown,Unknown,JAXA H,1 20480U 90013C   24001.16295987  .00000007  00000+0  87619-4 0  9992,2 20480  99.0692  82.0585 0540487  19.5873 342.5146 12.83452568588134,12.83452568,0.0540487,LEO
12295,KIKU-3 (ETS-IV),1981,249.5,-1.0,-,28.45,Inactive,0,MEO,Japan,Japan,Unknown,Unknown,JAXA N,1 12295U 81012A   24001.37100339  .00008215  00000+0  13280-2 0  9995,2 12295  28.4514 359.3616 4910069  57.7105 340.7827  5.77144813587968,5.77144813,0.4910069,MEO
12297,COSMOS 1244,1981,104.72,-1.0,UNK,82.95,Inactive,0,LEO,Russia,Russia/USSR,Unknown,Unknown,Kosmos,1 12297U 81013A   24001.61948122  .00000055  00000+0  41555-4 0  9997,2 12297  82.9518  29.8647 0030596 173.6100 303.4474 13.75108144795902,13.75108144,0.0030596,LEO
12303,COSMOS 1247,1981,711.13,-1.0,UNK,67.47,Inactive,0,MEO,Russia,Russia/USSR,Unknown,Unknown,Molniya,1 12303U 81016A   24001.34051228  .00000651  00000+0  00000+0 0  9997,2 12303  67.4683  60.4182 6464450   3.9588 359.5240  2.02496002316999,2.02496002,0.646445,MEO
20499,RADUGA 25,1990,1435.72,-1.0,-,13.26,Inactive,0,GSO,Kazakhstan,Russia/USSR,Unknown,Unknown,Proton,1 20499U 90016A   24001.59689663  .00000097  00000+0  00000+0 0  9993,2 20499  13.2609 341.1036 0005308 177.6921 347.8795  1.00298006123908,1.00298006,0.0005308,GSO
12309,ESIAFI 1 (COMSTAR 4),1981,1436.27,-1.0,-,10.44,Inactive,0,GSO,USA,USA,Unknown,Unknown,Atlas,1 12309U 81018A   23364.40480143 -.00000067  00000+0  00000+0 0  9997,2 12309  10.4420 317.6758 0002339  76.7633 283.3461  1.00259674158425,1.00259674,0.0002339,GSO
28498,PARASOL,2004,97.91,-1.0,-,98.42,Inactive,0,LEO,French Guiana,France,Unknown,Unknown,Ariane,1 28498U 04049G   24001.34079708  .00001264  00000+0  21555-3 0  9996,2 28498  98.4230 143.0741 0014595 346.0817  13.9984 14.70789169 17062,14.70789169,0.0014595,LEO
20508,NADEZHDA 2,1990,104.77,-1.0,-,82.96,Inactive,0,LEO,Russia,Russia/USSR,Unknown,Unknown,Kosmos,1 20508U 90017A   24001.57094203  .00000067  00000+0  53723-4 0  9995,2 20508  82.9556  17.1255 0045399  63.1997  55.6816 13.74400399697078,13.74400399,0.0045399,LEO
20510,OKEAN-2,1990,95.71,-1.0,UNK,82.51,Inactive,0,LEO,Russia,Russia/USSR,Unknown,Unknown,Tsiklon,1 20510U 90018A   24001.59500986  .00003337  00000+0  23604-3 0  9998,2 20510  82.5136  32.8446 0011570 168.7768 310.4196 15.04523578818538,15.04523578,0.001157,LEO
12319,COSMOS 1249,1981,103.85,-1.0,UNK,64.97,Inactive,0,LEO,Kazakhstan,Russia/USSR,Unknown,Unknown,Tsiklon,1 12319U 81021A   24001.29372056 -.00000046  00000+0  36969-4 0  9996,2 12319  64.9650 320.7974 0059050 216.5164 143.1865 13.86677160170342,13.8667716,0.005905,LEO
12320,COSMOS 1250,1981,114.44,-1.0,UNK,74.03,Inactive,0,LEO,Russia,Russia/USSR,Military,Unknown,Kosmos,1 12320U 81022A   24001.51082910  .00000008  00000+0  14147-3 0  9991,2 12320  74.0294 122.1049 0052573 346.6045  87.4778 12.58256941966998,12.58256941,0.0052573,LEO
12321,COSMOS 1251,1981,114.61,-1.0,UNK,74.03,Inactive,0,LEO,Russia,Russia/USSR,Military,Unknown,Kosmos,1 12321U 81022B   24001.61525635 -.00000012  00000+0  23518-4 0  9998,2 12321  74.0271 192.0786 0043783  76.4280 351.7104 12.56466099964173,12.56466099,0.0043783,LEO
12322,COSMOS 1252,1981,114.76,-1.0,UNK,74.03,Inactive,0,LEO,Russia,Russia/USSR,Military,Unknown,Kosmos,1 12322U 81022C   24001.15742701  .00000008  00000+0  14788-3 0  9995,2 12322  74.0294 258.5015 0034478 151.3379   3.2765 12.54787379961494,12.54787379,0.0034478,LEO
12323,COSMOS 1253,1981,115.59,-1.0,UNK,74.03,Inactive,0,LEO,Russia,Russia/USSR,Military,Unknown,Kosmos,1 12323U 81022D   24001.12291453 -.00000001  00000+0  10242-3 0  9991,2 12323  74.0286 246.2370 0018364 309.3856 164.3642 12.45819460947488,12.4581946,0.0018364,LEO
4132,SOICAL [CONE],1969,100.89,-1.0,UNK,70.0,Inactive,0,LEO,USA,USA,Unknown,Unknown,Unknown,1 04132U 69082K   24001.60832643  .00001813  00000+0  76354-3 0  9994,2 04132  69.9951 141.4449 0012247 286.2792  73.6982 14.27268368792594,14.27268368,0.0012247,LEO
12324,COSMOS 1254,1981,114.91,-1.0,UNK,74.03,Inactive,0,LEO,Russia,Russia/USSR,Military,Unknown,Kosmos,1 12324U 81022E   24001.34908417  .00000000  00000+0  99426-4 0  9991,2 12324  74.0309 323.3654 0027027 230.6835 283.9504 12.53105206958893,12.53105206,0.0027027,LEO
12325,COSMOS 1255,1981,115.06,-1.0,UNK,74.03,Inactive,0,LEO,Russia,Russia/USSR,Military,Unknown,Kosmos,1 12325U 81022F   24001.54970933 -.00000016  00000+0 -78717-6 0  9997,2 12325  74.0306  27.2964 0018022 301.4644 227.1445 12.51469010956329,12.5146901,0.0018022,LEO
12326,COSMOS 1256,1981,115.24,-1.0,UNK,74.03,Inactive,0,LEO,Russia,Russia/USSR,Military,Unknown,Kosmos,1 12326U 81022G   24001.61478063  .00000006  00000+0  14443-3 0  9993,2 12326  74.0296  99.9738 0011980  64.7650  46.3846 12.49578059953475,12.49578059,0.001198,LEO
12327,COSMOS 1257,1981,115.4,-1.0,UNK,74.03,Inactive,0,LEO,Russia,Russia/USSR,Military,Unknown,Kosmos,1 12327U 81022H   24001.60037073  .00000000  00000+0  10767-3 0  9994,2 12327  74.0271 167.3554 0007177 204.9176 224.5439 12.47835740950701,12.4783574,0.0007177,LEO
4138,COSMOS 304,1969,99.57,-1.0,UNK,74.04,Inactive,0,LEO,Russia,Russia/USSR,Unknown,Unknown,Kosmos,1 04138U 69091A   24001.61471428  .00000084  00000+0  31010-4 0  9991,2 04138  74.0396 106.7157 0013582 329.6404  30.3966 14.46182453857961,14.46182453,0.0013582,LEO
20523,INTELSAT 603 (IS-603),1990,1447.51,-1.0,-,13.44,Inactive,0,GSO,USA,INTELSAT,Unknown,Unknown,Titan,1 20523U 90021A   23364.89582201 -.00000261  00000+0  00000+0 0  9995,2 20523  13.4404  15.6336 0005001  60.0656 294.7871  0.99481411116455,0.99481411,0.0005001,GSO
28707,EXPRESS-AM3,2005,1454.54,2600.0,-,5.03,Inactive,1,GSO,Kazakhstan,Russia/USSR,Commercial,Communications,Proton,1 28707U 05023A   24001.48949514 -.00000168  00000+0  00000+0 0  9999,2 28707   5.0250  78.1599 0006869 192.8093 310.2694  0.99000274 44327,0.99000274,0.0006869,GSO
